{
    "links": {
        "self": "http://www.neowsapp.com/rest/v1/neo/3578912?api_key=iIulBulltgU6a56xZRHN4H3l9WmuAYTsLGpBGhQ2"
    },
    "id": "3578912",
    "neo_reference_id": "3578912",
    "name": "(2011 SA25)",
    "designation": "2011 SA25",
    "nasa_jpl_url": "http://ssd.jpl.nasa.gov/sbdb.cgi?sstr=3578912",
    "absolute_magnitude_h": 23.9,
    "estimated_diameter": {
        "kilometers": {
            "estimated_diameter_min": 0.04411182,
            "estimated_diameter_max": 0.0986370281
        },
        "meters": {
            "estimated_diameter_min": 44.1118199997,
            "estimated_diameter_max": 98.6370281305
        },
        "miles": {
            "estimated_diameter_min": 0.0274098057,
            "estimated_diameter_max": 0.0612901888
        },
        "feet": {
            "estimated_diameter_min": 144.7238235278,
            "estimated_diameter_max": 323.6123073718
        }
    },
    "is_potentially_hazardous_asteroid": false,
    "close_approach_data": [
        {
            "close_approach_date": "2011-09-21",
            "close_approach_date_full": "2011-Sep-21 07:33",
            "epoch_date_close_approach": 1316590380000,
            "relative_velocity": {
                "kilometers_per_second": "12.8162995667",
                "kilometers_per_hour": "46138.6784400746",
                "miles_per_hour": "28668.780500723"
            },
            "miss_distance": {
                "astronomical": "0.1903815868",
                "lunar": "74.0584372652",
                "kilometers": "28480679.872500116",
                "miles": "17697073.8485529608"
            },
            "orbiting_body": "Earth"
        },
        {
            "close_approach_date": "2013-09-16",
            "close_approach_date_full": "2013-Sep-16 20:31",
            "epoch_date_close_approach": 1379363460000,
            "relative_velocity": {
                "kilometers_per_second": "18.1989014844",
                "kilometers_per_hour": "65516.0453438231",
                "miles_per_hour": "40709.1227304438"
            },
            "miss_distance": {
                "astronomical": "0.4547596911",
                "lunar": "176.9015198379",
                "kilometers": "68031081.150417957",
                "miles": "42272553.6225115266"
            },
            "orbiting_body": "Earth"
        }
    ],
    "orbital_data": {
        "orbit_id": "5",
        "orbit_determination_date": "2017-04-06 08:52:48",
        "first_observation_date": "2011-09-20",
        "last_observation_date": "2011-09-29",
        "data_arc_in_days": 9,
        "observations_used": 25,
        "orbit_uncertainty": "8",
        "minimum_orbit_intersection": ".181351",
        "jupiter_tisserand_invariant": "4.322",
        "epoch_osculation": "2455825.5",
        "eccentricity": ".2664725506302763",
        "semi_major_axis": "1.545675278195752",
        "inclination": "24.50688583363187",
        "ascending_node_longitude": "352.0701680702577",
        "orbital_period": "701.900930365246",
        "perihelion_distance": "1.133795244368768",
        "perihelion_argument": "41.29151556148683",
        "aphelion_distance": "1.957555312022736",
        "perihelion_time": "2455868.211928703424",
        "mean_anomaly": "338.0933552471125",
        "mean_motion": ".5128928947460831",
        "equinox": "J2000",
        "orbit_class": {
            "orbit_class_type": "AMO",
            "orbit_class_description": "Near-Earth asteroid orbits similar to that of 1221 Amor",
            "orbit_class_range": "1.017 AU < q (perihelion) < 1.3 AU"
        }
    },
    "is_sentry_object": false
}